STARLINK-3173           
1 51111U 22005H   26177.17819773 -.00000089  00000+0  12527-4 0  9992
2 51111  53.1581 161.9459 0001255  79.5686 280.5447 15.08837198245251
STARLINK-3243           
1 51116U 22005N   26177.12764015 -.00000371  00000+0 -52428-5 0  9990
2 51116  53.1603 162.1484 0001280  84.1072 276.0065 15.08827075245249
STARLINK-3398           
1 51120U 22005S   26177.22333436  .00001399  00000+0  10597-3 0  9993
2 51120  53.1590 161.7548 0001620  76.4403 283.6768 15.08843883245266
STARLINK-3392           
1 51123U 22005V   26177.21869209  .00001098  00000+0  87104-4 0  9992
2 51123  53.1591 161.7655 0001281  85.8978 274.2160 15.08830378245260
STARLINK-3590           
1 51867U 22022R   26176.60044037 -.00000286  00000+0  11248-6 0  9999
2 51867  53.1574 244.5430 0001012  74.8762 285.2342 15.08833131239401
STARLINK-3588           
1 51869U 22022T   26176.45692330 -.00003801  00000+0 -22080-3 0  9999
2 51869  53.1583 245.1880 0000856  74.8461 285.2625 15.08845825239384
