{
  "schema": "int-telemetry-real-tle-snapshot/v1",
  "source": "celestrak",
  "group": "STARLINK",
  "format": "celestrak-gp-json",
  "source_url": "https://celestrak.org/NORAD/elements/gp.php?NAME=STARLINK&FORMAT=JSON",
  "downloaded_at": "2026-07-01T09:45:20.184Z",
  "generated_at": "2026-07-01T09:45:20.328Z",
  "fingerprint": "b8e2cd48",
  "shell_id": "starlink-real-53.2deg-545km",
  "catalog_count": 10658,
  "shell_count": 1056,
  "selected_count": 64,
  "mean_altitude_km": 544.89,
  "mean_inclination_deg": 53.1617,
  "mean_mean_motion_rev_per_day": 15.09493346,
  "layout": {
    "planes": 8,
    "satellites_per_plane": 8,
    "selection_strategy": "target-shell-raan-clusters-even-slot-sampling",
    "raan_cluster_threshold_deg": 1.5,
    "target_inclination_deg": 53,
    "target_altitude_km": 550,
    "selected_shell_key": "53.0deg-550km",
    "target_shell_distance": 21.03
  },
  "satellites": [
    {
      "satellite_id": "P05-S05",
      "norad_id": 51111,
      "satellite_name": "STARLINK-3173",
      "cospar_id": "2022-005H",
      "shell_id": "starlink-real-53.2deg-545km",
      "plane_id": 4,
      "slot_id": 4,
      "epoch": "2026-06-26T04:16:36.283872",
      "inclination": 53.1581,
      "raan": 161.94589999999994,
      "eccentricity": 0.0001255,
      "argument_of_perigee": 79.5686,
      "mean_anomaly": 280.5446999999999,
      "mean_motion": 15.08837198,
      "bstar": 0.000012527,
      "status": "active",
      "raw_omm": {
        "OBJECT_NAME": "STARLINK-3173",
        "OBJECT_ID": "2022-005H",
        "EPOCH": "2026-06-26T04:16:36.283872",
        "MEAN_MOTION": 15.08837198,
        "ECCENTRICITY": 0.0001255,
        "INCLINATION": 53.1581,
        "RA_OF_ASC_NODE": 161.9459,
        "ARG_OF_PERICENTER": 79.5686,
        "MEAN_ANOMALY": 280.5447,
        "EPHEMERIS_TYPE": 0,
        "CLASSIFICATION_TYPE": "U",
        "NORAD_CAT_ID": 51111,
        "ELEMENT_SET_NO": 999,
        "REV_AT_EPOCH": 24525,
        "BSTAR": 0.000012527,
        "MEAN_MOTION_DOT": -8.9e-7,
        "MEAN_MOTION_DDOT": 0
      },
      "source": "celestrak",
      "source_url": "https://celestrak.org/NORAD/elements/gp.php?NAME=STARLINK&FORMAT=JSON",
      "catalog_fingerprint": "b8e2cd48"
    },
    {
      "satellite_id": "P05-S06",
      "norad_id": 51116,
      "satellite_name": "STARLINK-3243",
      "cospar_id": "2022-005N",
      "shell_id": "starlink-real-53.2deg-545km",
      "plane_id": 4,
      "slot_id": 5,
      "epoch": "2026-06-26T03:03:48.108960",
      "inclination": 53.1603,
      "raan": 162.14840000000004,
      "eccentricity": 0.000128,
      "argument_of_perigee": 84.10720000000003,
      "mean_anomaly": 276.00649999999996,
      "mean_motion": 15.08827075,
      "bstar": -0.0000052428,
      "status": "active",
      "raw_omm": {
        "OBJECT_NAME": "STARLINK-3243",
        "OBJECT_ID": "2022-005N",
        "EPOCH": "2026-06-26T03:03:48.108960",
        "MEAN_MOTION": 15.08827075,
        "ECCENTRICITY": 0.000128,
        "INCLINATION": 53.1603,
        "RA_OF_ASC_NODE": 162.1484,
        "ARG_OF_PERICENTER": 84.1072,
        "MEAN_ANOMALY": 276.0065,
        "EPHEMERIS_TYPE": 0,
        "CLASSIFICATION_TYPE": "U",
        "NORAD_CAT_ID": 51116,
        "ELEMENT_SET_NO": 999,
        "REV_AT_EPOCH": 24524,
        "BSTAR": -0.0000052428,
        "MEAN_MOTION_DOT": -0.00000371,
        "MEAN_MOTION_DDOT": 0
      },
      "source": "celestrak",
      "source_url": "https://celestrak.org/NORAD/elements/gp.php?NAME=STARLINK&FORMAT=JSON",
      "catalog_fingerprint": "b8e2cd48"
    },
    {
      "satellite_id": "P05-S07",
      "norad_id": 51123,
      "satellite_name": "STARLINK-3392",
      "cospar_id": "2022-005V",
      "shell_id": "starlink-real-53.2deg-545km",
      "plane_id": 4,
      "slot_id": 6,
      "epoch": "2026-06-26T05:14:54.996576",
      "inclination": 53.1591,
      "raan": 161.76549999999997,
      "eccentricity": 0.0001281,
      "argument_of_perigee": 85.89780000000002,
      "mean_anomaly": 274.216,
      "mean_motion": 15.08830378,
      "bstar": 0.000087104,
      "status": "active",
      "raw_omm": {
        "OBJECT_NAME": "STARLINK-3392",
        "OBJECT_ID": "2022-005V",
        "EPOCH": "2026-06-26T05:14:54.996576",
        "MEAN_MOTION": 15.08830378,
        "ECCENTRICITY": 0.0001281,
        "INCLINATION": 53.1591,
        "RA_OF_ASC_NODE": 161.7655,
        "ARG_OF_PERICENTER": 85.8978,
        "MEAN_ANOMALY": 274.216,
        "EPHEMERIS_TYPE": 0,
        "CLASSIFICATION_TYPE": "U",
        "NORAD_CAT_ID": 51123,
        "ELEMENT_SET_NO": 999,
        "REV_AT_EPOCH": 24526,
        "BSTAR": 0.000087104,
        "MEAN_MOTION_DOT": 0.00001098,
        "MEAN_MOTION_DDOT": 0
      },
      "source": "celestrak",
      "source_url": "https://celestrak.org/NORAD/elements/gp.php?NAME=STARLINK&FORMAT=JSON",
      "catalog_fingerprint": "b8e2cd48"
    },
    {
      "satellite_id": "P05-S08",
      "norad_id": 51120,
      "satellite_name": "STARLINK-3398",
      "cospar_id": "2022-005S",
      "shell_id": "starlink-real-53.2deg-545km",
      "plane_id": 4,
      "slot_id": 7,
      "epoch": "2026-06-26T05:21:36.088704",
      "inclination": 53.159,
      "raan": 161.75479999999993,
      "eccentricity": 0.000162,
      "argument_of_perigee": 76.44029999999998,
      "mean_anomaly": 283.67679999999996,
      "mean_motion": 15.08843883,
      "bstar": 0.00010597,
      "status": "active",
      "raw_omm": {
        "OBJECT_NAME": "STARLINK-3398",
        "OBJECT_ID": "2022-005S",
        "EPOCH": "2026-06-26T05:21:36.088704",
        "MEAN_MOTION": 15.08843883,
        "ECCENTRICITY": 0.000162,
        "INCLINATION": 53.159,
        "RA_OF_ASC_NODE": 161.7548,
        "ARG_OF_PERICENTER": 76.4403,
        "MEAN_ANOMALY": 283.6768,
        "EPHEMERIS_TYPE": 0,
        "CLASSIFICATION_TYPE": "U",
        "NORAD_CAT_ID": 51120,
        "ELEMENT_SET_NO": 999,
        "REV_AT_EPOCH": 24526,
        "BSTAR": 0.00010597,
        "MEAN_MOTION_DOT": 0.00001399,
        "MEAN_MOTION_DDOT": 0
      },
      "source": "celestrak",
      "source_url": "https://celestrak.org/NORAD/elements/gp.php?NAME=STARLINK&FORMAT=JSON",
      "catalog_fingerprint": "b8e2cd48"
    },
    {
      "satellite_id": "P06-S01",
      "norad_id": 51869,
      "satellite_name": "STARLINK-3588",
      "cospar_id": "2022-022T",
      "shell_id": "starlink-real-53.2deg-545km",
      "plane_id": 5,
      "slot_id": 0,
      "epoch": "2026-06-25T10:57:58.173120",
      "inclination": 53.1583,
      "raan": 245.188,
      "eccentricity": 0.0000856,
      "argument_of_perigee": 74.84609999999998,
      "mean_anomaly": 285.26250000000005,
      "mean_motion": 15.08845825,
      "bstar": -0.0002208,
      "status": "active",
      "raw_omm": {
        "OBJECT_NAME": "STARLINK-3588",
        "OBJECT_ID": "2022-022T",
        "EPOCH": "2026-06-25T10:57:58.173120",
        "MEAN_MOTION": 15.08845825,
        "ECCENTRICITY": 0.0000856,
        "INCLINATION": 53.1583,
        "RA_OF_ASC_NODE": 245.188,
        "ARG_OF_PERICENTER": 74.8461,
        "MEAN_ANOMALY": 285.2625,
        "EPHEMERIS_TYPE": 0,
        "CLASSIFICATION_TYPE": "U",
        "NORAD_CAT_ID": 51869,
        "ELEMENT_SET_NO": 999,
        "REV_AT_EPOCH": 23938,
        "BSTAR": -0.0002208,
        "MEAN_MOTION_DOT": -0.00003801,
        "MEAN_MOTION_DDOT": 0
      },
      "source": "celestrak",
      "source_url": "https://celestrak.org/NORAD/elements/gp.php?NAME=STARLINK&FORMAT=JSON",
      "catalog_fingerprint": "b8e2cd48"
    },
    {
      "satellite_id": "P06-S02",
      "norad_id": 51867,
      "satellite_name": "STARLINK-3590",
      "cospar_id": "2022-022R",
      "shell_id": "starlink-real-53.2deg-545km",
      "plane_id": 5,
      "slot_id": 1,
      "epoch": "2026-06-25T14:24:38.047968",
      "inclination": 53.1574,
      "raan": 244.543,
      "eccentricity": 0.0001012,
      "argument_of_perigee": 74.87619999999998,
      "mean_anomaly": 285.2342,
      "mean_motion": 15.08833131,
      "bstar": 1.1248e-7,
      "status": "active",
      "raw_omm": {
        "OBJECT_NAME": "STARLINK-3590",
        "OBJECT_ID": "2022-022R",
        "EPOCH": "2026-06-25T14:24:38.047968",
        "MEAN_MOTION": 15.08833131,
        "ECCENTRICITY": 0.0001012,
        "INCLINATION": 53.1574,
        "RA_OF_ASC_NODE": 244.543,
        "ARG_OF_PERICENTER": 74.8762,
        "MEAN_ANOMALY": 285.2342,
        "EPHEMERIS_TYPE": 0,
        "CLASSIFICATION_TYPE": "U",
        "NORAD_CAT_ID": 51867,
        "ELEMENT_SET_NO": 999,
        "REV_AT_EPOCH": 23940,
        "BSTAR": 1.1248e-7,
        "MEAN_MOTION_DOT": -0.00000286,
        "MEAN_MOTION_DDOT": 0
      },
      "source": "celestrak",
      "source_url": "https://celestrak.org/NORAD/elements/gp.php?NAME=STARLINK&FORMAT=JSON",
      "catalog_fingerprint": "b8e2cd48"
    }
  ]
}